{
    "links": {
        "self": "http://www.neowsapp.com/rest/v1/neo/3467213?api_key=iIulBulltgU6a56xZRHN4H3l9WmuAYTsLGpBGhQ2"
    },
    "id": "3467213",
    "neo_reference_id": "3467213",
    "name": "(2009 SS)",
    "designation": "2009 SS",
    "nasa_jpl_url": "http://ssd.jpl.nasa.gov/sbdb.cgi?sstr=3467213",
    "absolute_magnitude_h": 26.7,
    "estimated_diameter": {
        "kilometers": {
            "estimated_diameter_min": 0.0121494041,
            "estimated_diameter_max": 0.0271668934
        },
        "meters": {
            "estimated_diameter_min": 12.14940408,
            "estimated_diameter_max": 27.1668934089
        },
        "miles": {
            "estimated_diameter_min": 0.0075492874,
            "estimated_diameter_max": 0.0168807197
        },
        "feet": {
            "estimated_diameter_min": 39.8602508817,
            "estimated_diameter_max": 89.1302305717
        }
    },
    "is_potentially_hazardous_asteroid": false,
    "close_approach_data": [
        {
            "close_approach_date": "2009-09-19",
            "close_approach_date_full": "2009-Sep-19 12:49",
            "epoch_date_close_approach": 1253364540000,
            "relative_velocity": {
                "kilometers_per_second": "6.102068533",
                "kilometers_per_hour": "21967.4467188974",
                "miles_per_hour": "13649.7171015282"
            },
            "miss_distance": {
                "astronomical": "0.0667772661",
                "lunar": "25.9763565129",
                "kilometers": "9989736.772983207",
                "miles": "6207334.5928019766"
            },
            "orbiting_body": "Earth"
        }
    ],
    "orbital_data": {
        "orbit_id": "6",
        "orbit_determination_date": "2017-04-06 09:00:01",
        "first_observation_date": "2009-09-16",
        "last_observation_date": "2009-09-18",
        "data_arc_in_days": 2,
        "observations_used": 12,
        "orbit_uncertainty": "9",
        "minimum_orbit_intersection": ".0630182",
        "jupiter_tisserand_invariant": "6.540",
        "epoch_osculation": "2455091.5",
        "eccentricity": ".2011941641301614",
        "semi_major_axis": ".9075957917078094",
        "inclination": "9.527248145169214",
        "ascending_node_longitude": "350.5538760053867",
        "orbital_period": "315.8181877614655",
        "perihelion_distance": ".7249928150271047",
        "perihelion_argument": "162.1744245938625",
        "aphelion_distance": "1.090198768388514",
        "perihelion_time": "2455222.228783187456",
        "mean_anomaly": "210.9827369947739",
        "mean_motion": "1.139896351605642",
        "equinox": "J2000",
        "orbit_class": {
            "orbit_class_type": "ATE",
            "orbit_class_description": "Near-Earth asteroid orbits similar to that of 2062 Aten",
            "orbit_class_range": "a (semi-major axis) < 1.0 AU; q (perihelion) > 0.983 AU"
        }
    },
    "is_sentry_object": false
}